{
  "names": {
    "titles": { "male": ["Mr"], "female": ["Ms", "Mrs"] },
    "male_first_names": [
      "Juan",
      "Jose",
      "Mark",
      "Carlo",
      "Aljon",
      "Jefferson",
      "Rodel",
      "Aldrin",
      "Jerome",
      "Jomar",
      "Angelo",
      "Miguel",
      "Paolo",
      "Luis",
      "Adrian",
      "Bryan",
      "Christian",
      "Daniel",
      "Patrick",
      "Raymond"
    ],
    "female_first_names": [
      "Maria",
      "Ana",
      "Kyla",
      "Angelica",
      "Marites",
      "Michelle",
      "Grace",
      "Mika",
      "Princess",
      "Kathryn",
      "Andrea",
      "Bea",
      "Camille",
      "Denise",
      "Ella",
      "Faye",
      "Hanna",
      "Irene",
      "Janelle",
      "Kristine"
    ],
    "last_names": [
      "Santos",
      "Reyes",
      "Cruz",
      "Bautista",
      "Garcia",
      "Dela Cruz",
      "Aquino",
      "Fernandez",
      "Gonzales",
      "Mendoza",
      "Castillo",
      "Torres",
      "Navarro",
      "Ramos",
      "Villanueva",
      "Domingo",
      "Tolentino",
      "Panganiban",
      "Soriano",
      "Salazar"
    ]
  },
  "locations": [
    {
      "region": "Zamboanga Del Sur",
      "cities": [
        { "name": "Aurora", "zipcode": "7020" },
        { "name": "Midsalip", "zipcode": "7010" },
        { "name": "Molave", "zipcode": "7023" },
        { "name": "Pagadian", "zipcode": "7016" }
      ]
    },
    {
      "region": "Central Visayas",
      "cities": [
        { "name": "Bohol", "zipcode": "6300" },
        { "name": "Cebu", "zipcode": "6000" },
        { "name": "Dumagete", "zipcode": "6200" },
        { "name": "Siquijor", "zipcode": "6225" }
      ]
    },
    {
      "region": "National Capital Region",
      "cities": [
        { "name": "Makati", "zipcode": "1200" },
        { "name": "Manila", "zipcode": "1000" },
        { "name": "Pasay", "zipcode": "1300" },
        { "name": "Quezon", "zipcode": "1100" }
      ]
    }
  ]
}
